{
  "norad_id": 58733,
  "name": "STARLINK-31164",
  "history": [
    {
      "epoch": "2026-03-28T18:08:16.017216",
      "apogee_km": 484.08559706654614,
      "perigee_km": 481.99554515483305,
      "latitude_deg": 12.905774410182161,
      "longitude_deg": 125.85113023989834,
      "semi_major_axis_km": 6861.177571110689,
      "eccentricity": 0.00015231,
      "inclination_deg": 43.0036,
      "raan_deg": 111.7244,
      "arg_perigee_deg": 269.9676,
      "mean_anomaly_deg": 90.1001,
      "mean_motion_rev_day": 15.27582847
    }
  ]
}